ONEWEB-0086             
1 45456U 20020AJ  23354.54106694 -.00000484  00000+0 -14004-2 0  9998
2 45456  87.8971 201.8247 0001014  94.7029 265.4215 13.11418892183383
ONEWEB-0088             
1 45457U 20020AK  23354.59464159 -.00000116  00000+0 -36431-3 0  9998
2 45457  87.8957 201.7893 0001296  82.8327 277.2948 13.11414642183322
ONEWEB-0102             
1 47258U 20100A   23354.55009734  .00000207  00000+0  53995-3 0  9991
2 47258  87.8998 171.6215 0001735  92.8964 267.2364 13.12446011145412
ONEWEB-0109             
1 47259U 20100B   23354.55805559  .00000432  00000+0  11655-2 0  9997
2 47259  87.8993 171.5834 0001632  94.3720 265.7595 13.12442942145246
ONEWEB-0110             
1 47260U 20100C   23354.50562455  .00000141  00000+0  35660-3 0  9999
2 47260  87.8995 171.6087 0001576  96.6942 263.4366 13.12441798145406
ONEWEB-0111             
1 47261U 20100D   23354.53899206 -.00000114  00000+0 -35316-3 0  9990
2 47261  87.8993 171.5902 0001600  93.7523 266.3789 13.12444546145248
ONEWEB-0114             
1 47262U 20100E   23354.56916091  .00000519  00000+0  14070-2 0  9996
2 47262  87.8993 171.6067 0002076  89.7991 270.3375 13.12442121145203
ONEWEB-0117             
1 47263U 20100F   23354.56121028  .00000441  00000+0  11917-2 0  9996
2 47263  87.8999 171.5758 0001475  92.9315 267.1983 13.12445114145219
